{
  "type": "FeatureCollection",
  "features": [
    {
      "type": "Feature",
      "properties": {
        "norad_id": 67219,
        "name": "DISKSAT A",
        "group": "last-30-days",
        "lat": -22.914179306968798,
        "lon": 156.26355125225314,
        "alt_km": 550.4053380969326,
        "timestamp": "2025-12-20T03:42:46.123768+00:00",
        "meta_object_name": "DISKSAT A",
        "meta_object_id": "2025-305A",
        "meta_epoch": "2025-12-18T06:11:23.597664",
        "meta_mean_motion": 15.05868419,
        "meta_eccentricity": 0.00043552,
        "meta_inclination": 45.0103,
        "meta_ra_of_asc_node": 321.2665,
        "meta_arg_of_pericenter": 276.2808,
        "meta_mean_anomaly": 83.7571,
        "meta_ephemeris_type": 0,
        "meta_classification_type": "U",
        "meta_norad_cat_id": 67219,
        "meta_element_set_no": 999,
        "meta_rev_at_epoch": 1,
        "meta_bstar": 6.4032814e-05,
        "meta_mean_motion_dot": 7.05e-06,
        "meta_mean_motion_ddot": 0,
        "tle_line1": "1 67219U 25305A   25352.25791201  .00000705  00000+0  64033-4 0  9995",
        "tle_line2": "2 67219  45.0103 321.2665 0004355 276.2808  83.7571 15.05868419    14"
      },
      "geometry": {
        "type": "Point",
        "coordinates": [
          156.26355125225314,
          -22.914179306968798
        ]
      }
    },
    {
      "type": "Feature",
      "properties": {
        "norad_id": 67220,
        "name": "DISKSAT B",
        "group": "last-30-days",
        "lat": -20.908933153665853,
        "lon": 153.73009524466602,
        "alt_km": 552.4072748710432,
        "timestamp": "2025-12-20T03:42:46.123778+00:00",
        "meta_object_name": "DISKSAT B",
        "meta_object_id": "2025-305B",
        "meta_epoch": "2025-12-18T06:11:23.538912",
        "meta_mean_motion": 15.05411903,
        "meta_eccentricity": 0.0003917,
        "meta_inclination": 45.0065,
        "meta_ra_of_asc_node": 321.27,
        "meta_arg_of_pericenter": 288.0087,
        "meta_mean_anomaly": 72.0361,
        "meta_ephemeris_type": 0,
        "meta_classification_type": "U",
        "meta_norad_cat_id": 67220,
        "meta_element_set_no": 999,
        "meta_rev_at_epoch": 1,
        "meta_bstar": 0.00011832,
        "meta_mean_motion_dot": 1.486e-05,
        "meta_mean_motion_ddot": 0,
        "tle_line1": "1 67220U 25305B   25352.25791133  .00001486  00000+0  11832-3 0  9996",
        "tle_line2": "2 67220  45.0065 321.2700 0003917 288.0087  72.0361 15.05411903    16"
      },
      "geometry": {
        "type": "Point",
        "coordinates": [
          153.73009524466602,
          -20.908933153665853
        ]
      }
    },
    {
      "type": "Feature",
      "properties": {
        "norad_id": 67221,
        "name": "DISKSAT C",
        "group": "last-30-days",
        "lat": -42.2515553253492,
        "lon": -114.32892359958899,
        "alt_km": 481.32307597178533,
        "timestamp": "2025-12-20T03:42:46.123791+00:00",
        "meta_object_name": "DISKSAT C",
        "meta_object_id": "2025-305C",
        "meta_epoch": "2025-12-18T06:11:31.580160",
        "meta_mean_motion": 15.16973586,
        "meta_eccentricity": 0.00625938,
        "meta_inclination": 45.0151,
        "meta_ra_of_asc_node": 321.1654,
        "meta_arg_of_pericenter": 307.7869,
        "meta_mean_anomaly": 51.7353,
        "meta_ephemeris_type": 0,
        "meta_classification_type": "U",
        "meta_norad_cat_id": 67221,
        "meta_element_set_no": 999,
        "meta_rev_at_epoch": 1,
        "meta_bstar": 0.00014323237,
        "meta_mean_motion_dot": 2.734e-05,
        "meta_mean_motion_ddot": 0,
        "tle_line1": "1 67221U 25305C   25352.25800440  .00002734  00000+0  14323-3 0  9994",
        "tle_line2": "2 67221  45.0151 321.1654 0062593 307.7869  51.7353 15.16973586    19"
      },
      "geometry": {
        "type": "Point",
        "coordinates": [
          -114.32892359958899,
          -42.2515553253492
        ]
      }
    },
    {
      "type": "Feature",
      "properties": {
        "norad_id": 67222,
        "name": "DISKSAT D",
        "group": "last-30-days",
        "lat": -25.086480039918023,
        "lon": 158.88402970084152,
        "alt_km": 544.920098910754,
        "timestamp": "2025-12-20T03:42:46.123802+00:00",
        "meta_object_name": "DISKSAT D",
        "meta_object_id": "2025-305D",
        "meta_epoch": "2025-12-18T07:46:51.908160",
        "meta_mean_motion": 15.06357331,
        "meta_eccentricity": 0.00088258,
        "meta_inclination": 45.0527,
        "meta_ra_of_asc_node": 320.6724,
        "meta_arg_of_pericenter": 241.9782,
        "meta_mean_anomaly": 118.0201,
        "meta_ephemeris_type": 0,
        "meta_classification_type": "U",
        "meta_norad_cat_id": 67222,
        "meta_element_set_no": 999,
        "meta_rev_at_epoch": 1,
        "meta_bstar": 0.00029211464,
        "meta_mean_motion_dot": 4.13e-05,
        "meta_mean_motion_ddot": 0,
        "tle_line1": "1 67222U 25305D   25352.32421190  .00004130  00000+0  29211-3 0  9998",
        "tle_line2": "2 67222  45.0527 320.6724 0008825 241.9782 118.0201 15.06357331    12"
      },
      "geometry": {
        "type": "Point",
        "coordinates": [
          158.88402970084152,
          -25.086480039918023
        ]
      }
    },
    {
      "type": "Feature",
      "properties": {
        "norad_id": 67223,
        "name": "ELECTRON KICK STAGE R/B",
        "group": "last-30-days",
        "lat": 24.668746209747763,
        "lon": 103.22230348081173,
        "alt_km": 296.1954542664844,
        "timestamp": "2025-12-20T03:42:46.123812+00:00",
        "meta_object_name": "ELECTRON KICK STAGE R/B",
        "meta_object_id": "2025-305E",
        "meta_epoch": "2025-12-18T06:11:27.945312",
        "meta_mean_motion": 15.48092024,
        "meta_eccentricity": 0.01803623,
        "meta_inclination": 44.9944,
        "meta_ra_of_asc_node": 321.2861,
        "meta_arg_of_pericenter": 136.421,
        "meta_mean_anomaly": 225.1089,
        "meta_ephemeris_type": 0,
        "meta_classification_type": "U",
        "meta_norad_cat_id": 67223,
        "meta_element_set_no": 999,
        "meta_rev_at_epoch": 1,
        "meta_bstar": 0.00018043632,
        "meta_mean_motion_dot": 0.00018378,
        "meta_mean_motion_ddot": 0,
        "tle_line1": "1 67223U 25305E   25352.25796233  .00018378  00000+0  18044-3 0  9995",
        "tle_line2": "2 67223  44.9944 321.2861 0180362 136.4210 225.1089 15.48092024    19"
      },
      "geometry": {
        "type": "Point",
        "coordinates": [
          103.22230348081173,
          24.668746209747763
        ]
      }
    },
    {
      "type": "Feature",
      "properties": {
        "norad_id": 67224,
        "name": "ELECTRON R/B",
        "group": "last-30-days",
        "lat": -41.94830102997133,
        "lon": -165.70880241547846,
        "alt_km": 235.10068485525608,
        "timestamp": "2025-12-20T03:42:46.123824+00:00",
        "meta_object_name": "ELECTRON R/B",
        "meta_object_id": "2025-305F",
        "meta_epoch": "2025-12-18T18:27:13.126752",
        "meta_mean_motion": 15.64663678,
        "meta_eccentricity": 0.0262888,
        "meta_inclination": 45.0188,
        "meta_ra_of_asc_node": 318.3021,
        "meta_arg_of_pericenter": 280.1207,
        "meta_mean_anomaly": 77.0133,
        "meta_ephemeris_type": 0,
        "meta_classification_type": "U",
        "meta_norad_cat_id": 67224,
        "meta_element_set_no": 999,
        "meta_rev_at_epoch": 9,
        "meta_bstar": 0.00022935,
        "meta_mean_motion_dot": 0.00172783,
        "meta_mean_motion_ddot": 8.6369e-06,
        "tle_line1": "1 67224U 25305F   25352.76890193  .00172783  86369-5  22935-3 0  9995",
        "tle_line2": "2 67224  45.0188 318.3021 0262888 280.1207  77.0133 15.64663678    93"
      },
      "geometry": {
        "type": "Point",
        "coordinates": [
          -165.70880241547846,
          -41.94830102997133
        ]
      }
    }
  ]
}